{
    "links": {
        "self": "http://www.neowsapp.com/rest/v1/neo/3177205?api_key=iIulBulltgU6a56xZRHN4H3l9WmuAYTsLGpBGhQ2"
    },
    "id": "3177205",
    "neo_reference_id": "3177205",
    "name": "(2004 FX1)",
    "designation": "2004 FX1",
    "nasa_jpl_url": "http://ssd.jpl.nasa.gov/sbdb.cgi?sstr=3177205",
    "absolute_magnitude_h": 25.3,
    "estimated_diameter": {
        "kilometers": {
            "estimated_diameter_min": 0.0231502122,
            "estimated_diameter_max": 0.0517654482
        },
        "meters": {
            "estimated_diameter_min": 23.150212221,
            "estimated_diameter_max": 51.7654482198
        },
        "miles": {
            "estimated_diameter_min": 0.0143848705,
            "estimated_diameter_max": 0.0321655483
        },
        "feet": {
            "estimated_diameter_min": 75.9521422633,
            "estimated_diameter_max": 169.8341531374
        }
    },
    "is_potentially_hazardous_asteroid": false,
    "close_approach_data": [
        {
            "close_approach_date": "2003-08-07",
            "close_approach_date_full": "2003-Aug-07 05:27",
            "epoch_date_close_approach": 1060234020000,
            "relative_velocity": {
                "kilometers_per_second": "8.8631182048",
                "kilometers_per_hour": "31907.2255374165",
                "miles_per_hour": "19825.9091124019"
            },
            "miss_distance": {
                "astronomical": "0.4671198208",
                "lunar": "181.7096102912",
                "kilometers": "69880130.226461696",
                "miles": "43421499.4410395648"
            },
            "orbiting_body": "Earth"
        },
        {
            "close_approach_date": "2004-03-11",
            "close_approach_date_full": "2004-Mar-11 08:27",
            "epoch_date_close_approach": 1078993620000,
            "relative_velocity": {
                "kilometers_per_second": "11.6872911047",
                "kilometers_per_hour": "42074.247976803",
                "miles_per_hour": "26143.3014720307"
            },
            "miss_distance": {
                "astronomical": "0.018181477",
                "lunar": "7.072594553",
                "kilometers": "2719910.23265399",
                "miles": "1690073.848805462"
            },
            "orbiting_body": "Earth"
        }
    ],
    "orbital_data": {
        "orbit_id": "6",
        "orbit_determination_date": "2017-04-06 09:13:04",
        "first_observation_date": "2004-03-17",
        "last_observation_date": "2004-03-19",
        "data_arc_in_days": 2,
        "observations_used": 27,
        "orbit_uncertainty": "9",
        "minimum_orbit_intersection": ".0181413",
        "jupiter_tisserand_invariant": "5.463",
        "epoch_osculation": "2453083.5",
        "eccentricity": ".2650209261695037",
        "semi_major_axis": "1.129668282444703",
        "inclination": "17.61087385793003",
        "ascending_node_longitude": "353.033302882493",
        "orbital_period": "438.5557704998673",
        "perihelion_distance": ".8302825479668953",
        "perihelion_argument": "97.04120499188022",
        "aphelion_distance": "1.42905401692251",
        "perihelion_time": "2453012.402167892086",
        "mean_anomaly": "58.36251916073416",
        "mean_motion": ".8208762128239034",
        "equinox": "J2000",
        "orbit_class": {
            "orbit_class_type": "APO",
            "orbit_class_description": "Near-Earth asteroid orbits which cross the Earth’s orbit similar to that of 1862 Apollo",
            "orbit_class_range": "a (semi-major axis) > 1.0 AU; q (perihelion) < 1.017 AU"
        }
    },
    "is_sentry_object": false
}